GLOBALSTAR M084         
1 38040U 11080A   26007.67253706 -.00000104  00000+0 -29608-5 0  9992
2 38040  52.0003 145.9467 0001241 107.7554 266.0164 12.62267048648494
GLOBALSTAR M080         
1 38041U 11080B   26007.64384867 -.00000106  00000+0 -13620-4 0  9991
2 38041  52.0049 147.6965 0000514 115.0369 258.1051 12.62265425648613
GLOBALSTAR M082         
1 38042U 11080C   26007.58006595 -.00000089  00000+0  84118-4 0  9993
2 38042  52.0078 103.3746 0000450 129.3908 243.4971 12.62266431649312
GLOBALSTAR M092         
1 38043U 11080D   26007.72685384 -.00000107  00000+0 -17943-4 0  9993
2 38043  52.0061 193.3165 0001038  89.8458 350.1952 12.62269270647780
GLOBALSTAR M090         
1 38044U 11080E   26007.79578603 -.00000085  00000+0  10315-3 0  9995
2 38044  52.0131  96.6230 0000620 107.3728  45.0754 12.62265651649454
GLOBALSTAR M086         
1 38045U 11080F   26007.57225712 -.00000081  00000+0  12545-3 0  9995
2 38045  51.9903  97.4946 0001536  74.8926  32.5581 12.62281856649373
GLOBALSTAR M097         
1 39072U 13005A   26007.73541026 -.00000094  00000+0  54259-4 0  9995
2 39072  52.0069  11.7643 0000362  60.9892 299.1011 12.62268024596648
GLOBALSTAR M093         
1 39073U 13005B   26007.70926020 -.00000097  00000+0  36006-4 0  9997
2 39073  52.0133   5.1312 0000490  28.3571 331.7322 12.62271476596592
